GSAT0224 (GALILEO 28)   
1 49810U 21116B   25321.08643947 -.00000083  00000+0  00000+0 0  9997
2 49810  57.2257 347.4051 0003866 243.7749 137.8498  1.70476321 24596
GSAT0225 (GALILEO 29)   
1 59598U 24079A   25320.52665071  .00000034  00000+0  00000+0 0  9997
2 59598  54.9855 107.0277 0002173 160.1530 230.2876  1.70474779  9695
GSAT0227 (GALILEO 30)   
1 59600U 24079C   25321.24702358  .00000032  00000+0  00000+0 0  9999
2 59600  54.9810 107.0071 0003754 111.0292 248.9872  1.70474694  9753
GSAT0232 (GALILEO 32)   
1 61182U 24167A   25321.21882516 -.00000008  00000+0  00000+0 0  9991
2 61182  55.2503 227.1313 0002622 227.6462 309.7265  1.70473444  7261
GSAT0226 (GALILEO 31)   
1 61183U 24167B   25320.44584427 -.00000015  00000+0  00000+0 0  9994
2 61183  55.2494 227.1579 0000474 188.8318 346.7934  1.70473501  7220
