[
    {
        "OBJECT_NAME": "GSAT0224 (GALILEO 28)",
        "OBJECT_ID": "2021-116B",
        "EPOCH": "2025-11-17T02:04:28.370208",
        "MEAN_MOTION": 1.70476321,
        "ECCENTRICITY": 0.00038665,
        "INCLINATION": 57.2257,
        "RA_OF_ASC_NODE": 347.4051,
        "ARG_OF_PERICENTER": 243.7749,
        "MEAN_ANOMALY": 137.8498,
        "EPHEMERIS_TYPE": 0,
        "CLASSIFICATION_TYPE": "U",
        "NORAD_CAT_ID": 49810,
        "ELEMENT_SET_NO": 999,
        "REV_AT_EPOCH": 2459,
        "BSTAR": 0,
        "MEAN_MOTION_DOT": -8.3e-7,
        "MEAN_MOTION_DDOT": 0
    },
    {
        "OBJECT_NAME": "GSAT0225 (GALILEO 29)",
        "OBJECT_ID": "2024-079A",
        "EPOCH": "2025-11-16T12:38:22.621344",
        "MEAN_MOTION": 1.70474779,
        "ECCENTRICITY": 0.00021734,
        "INCLINATION": 54.9855,
        "RA_OF_ASC_NODE": 107.0277,
        "ARG_OF_PERICENTER": 160.153,
        "MEAN_ANOMALY": 230.2876,
        "EPHEMERIS_TYPE": 0,
        "CLASSIFICATION_TYPE": "U",
        "NORAD_CAT_ID": 59598,
        "ELEMENT_SET_NO": 999,
        "REV_AT_EPOCH": 969,
        "BSTAR": 0,
        "MEAN_MOTION_DOT": 3.4e-7,
        "MEAN_MOTION_DDOT": 0
    },
    {
        "OBJECT_NAME": "GSAT0227 (GALILEO 30)",
        "OBJECT_ID": "2024-079C",
        "EPOCH": "2025-11-17T05:55:42.837312",
        "MEAN_MOTION": 1.70474694,
        "ECCENTRICITY": 0.0003754,
        "INCLINATION": 54.981,
        "RA_OF_ASC_NODE": 107.0071,
        "ARG_OF_PERICENTER": 111.0292,
        "MEAN_ANOMALY": 248.9872,
        "EPHEMERIS_TYPE": 0,
        "CLASSIFICATION_TYPE": "U",
        "NORAD_CAT_ID": 59600,
        "ELEMENT_SET_NO": 999,
        "REV_AT_EPOCH": 975,
        "BSTAR": 0,
        "MEAN_MOTION_DOT": 3.2e-7,
        "MEAN_MOTION_DDOT": 0
    },
    {
        "OBJECT_NAME": "GSAT0232 (GALILEO 32)",
        "OBJECT_ID": "2024-167A",
        "EPOCH": "2025-11-17T05:15:06.493824",
        "MEAN_MOTION": 1.70473444,
        "ECCENTRICITY": 0.00026227,
        "INCLINATION": 55.2503,
        "RA_OF_ASC_NODE": 227.1313,
        "ARG_OF_PERICENTER": 227.6462,
        "MEAN_ANOMALY": 309.7265,
        "EPHEMERIS_TYPE": 0,
        "CLASSIFICATION_TYPE": "U",
        "NORAD_CAT_ID": 61182,
        "ELEMENT_SET_NO": 999,
        "REV_AT_EPOCH": 726,
        "BSTAR": 0,
        "MEAN_MOTION_DOT": -8.0e-8,
        "MEAN_MOTION_DDOT": 0
    },
    {
        "OBJECT_NAME": "GSAT0226 (GALILEO 31)",
        "OBJECT_ID": "2024-167B",
        "EPOCH": "2025-11-16T10:42:00.944928",
        "MEAN_MOTION": 1.70473501,
        "ECCENTRICITY": 4.748e-5,
        "INCLINATION": 55.2494,
        "RA_OF_ASC_NODE": 227.1579,
        "ARG_OF_PERICENTER": 188.8318,
        "MEAN_ANOMALY": 346.7934,
        "EPHEMERIS_TYPE": 0,
        "CLASSIFICATION_TYPE": "U",
        "NORAD_CAT_ID": 61183,
        "ELEMENT_SET_NO": 999,
        "REV_AT_EPOCH": 722,
        "BSTAR": 0,
        "MEAN_MOTION_DOT": -1.5e-7,
        "MEAN_MOTION_DDOT": 0
    }
]